{
  "type": "FeatureCollection",
  "features": [
    {
      "type": "Feature",
      "properties": {
        "norad_id": 66877,
        "name": "ZQ-3 R/B",
        "group": "last-30-days",
        "lat": 3.6373507995968892,
        "lon": -140.12115718021874,
        "alt_km": 318.6049870584775,
        "timestamp": "2025-12-16T17:51:09.662493+00:00",
        "meta_object_name": "ZQ-3 R/B",
        "meta_object_id": "2025-282A",
        "meta_epoch": "2025-12-15T21:22:09.592320",
        "meta_mean_motion": 14.65987798,
        "meta_eccentricity": 0.07520265,
        "meta_inclination": 56.9513,
        "meta_ra_of_asc_node": 45.5548,
        "meta_arg_of_pericenter": 225.435,
        "meta_mean_anomaly": 128.288,
        "meta_ephemeris_type": 0,
        "meta_classification_type": "U",
        "meta_norad_cat_id": 66877,
        "meta_element_set_no": 999,
        "meta_rev_at_epoch": 185,
        "meta_bstar": 0.00018675553,
        "meta_mean_motion_dot": 0.00969078,
        "meta_mean_motion_ddot": 7.600091e-06,
        "tle_line1": "1 66877U 25282A   25349.89038880  .00969078  76001-5  18676-3 0  9999",
        "tle_line2": "2 66877  56.9513  45.5548 0752026 225.4350 128.2880 14.65987798  1856"
      },
      "geometry": {
        "type": "Point",
        "coordinates": [
          -140.12115718021874,
          3.6373507995968892
        ]
      }
    },
    {
      "type": "Feature",
      "properties": {
        "norad_id": 66878,
        "name": "STARLINK-35866",
        "group": "last-30-days",
        "lat": 52.376741464661706,
        "lon": 130.297303965415,
        "alt_km": 303.3270697178459,
        "timestamp": "2025-12-16T17:51:09.662504+00:00",
        "meta_object_name": "STARLINK-35866",
        "meta_object_id": "2025-283A",
        "meta_epoch": "2025-12-15T14:18:28.128096",
        "meta_mean_motion": 15.87676203,
        "meta_eccentricity": 0.00017351,
        "meta_inclination": 53.1555,
        "meta_ra_of_asc_node": 59.4756,
        "meta_arg_of_pericenter": 38.8295,
        "meta_mean_anomaly": 321.2855,
        "meta_ephemeris_type": 0,
        "meta_classification_type": "U",
        "meta_norad_cat_id": 66878,
        "meta_element_set_no": 999,
        "meta_rev_at_epoch": 290,
        "meta_bstar": -0.0015143055,
        "meta_mean_motion_dot": -0.00396627,
        "meta_mean_motion_ddot": 0,
        "tle_line1": "1 66878U 25283A   25349.59615889 -.00396627  00000+0 -15143-2 0  9999",
        "tle_line2": "2 66878  53.1555  59.4756 0001735  38.8295 321.2855 15.87676203  2900"
      },
      "geometry": {
        "type": "Point",
        "coordinates": [
          130.297303965415,
          52.376741464661706
        ]
      }
    },
    {
      "type": "Feature",
      "properties": {
        "norad_id": 66879,
        "name": "STARLINK-35749",
        "group": "last-30-days",
        "lat": 53.04846725149563,
        "lon": 139.1035378605209,
        "alt_km": 303.4497594685736,
        "timestamp": "2025-12-16T17:51:09.662517+00:00",
        "meta_object_name": "STARLINK-35749",
        "meta_object_id": "2025-283B",
        "meta_epoch": "2025-12-15T12:46:30.732096",
        "meta_mean_motion": 15.87852809,
        "meta_eccentricity": 0.00013438,
        "meta_inclination": 53.1557,
        "meta_ra_of_asc_node": 59.788,
        "meta_arg_of_pericenter": 62.1965,
        "meta_mean_anomaly": 297.9197,
        "meta_ephemeris_type": 0,
        "meta_classification_type": "U",
        "meta_norad_cat_id": 66879,
        "meta_element_set_no": 999,
        "meta_rev_at_epoch": 289,
        "meta_bstar": -0.0017725258,
        "meta_mean_motion_dot": -0.00464658,
        "meta_mean_motion_ddot": 0,
        "tle_line1": "1 66879U 25283B   25349.53230014 -.00464658  00000+0 -17725-2 0  9995",
        "tle_line2": "2 66879  53.1557  59.7880 0001343  62.1965 297.9197 15.87852809  2897"
      },
      "geometry": {
        "type": "Point",
        "coordinates": [
          139.1035378605209,
          53.04846725149563
        ]
      }
    },
    {
      "type": "Feature",
      "properties": {
        "norad_id": 66880,
        "name": "STARLINK-35844",
        "group": "last-30-days",
        "lat": 52.701344944404084,
        "lon": 133.52483656832257,
        "alt_km": 304.26772648347196,
        "timestamp": "2025-12-16T17:51:09.662527+00:00",
        "meta_object_name": "STARLINK-35844",
        "meta_object_id": "2025-283C",
        "meta_epoch": "2025-12-15T18:49:51.972384",
        "meta_mean_motion": 15.87309644,
        "meta_eccentricity": 4.569e-05,
        "meta_inclination": 53.1554,
        "meta_ra_of_asc_node": 58.5171,
        "meta_arg_of_pericenter": 234.7276,
        "meta_mean_anomaly": 125.3707,
        "meta_ephemeris_type": 0,
        "meta_classification_type": "U",
        "meta_norad_cat_id": 66880,
        "meta_element_set_no": 999,
        "meta_rev_at_epoch": 293,
        "meta_bstar": -0.00089101328,
        "meta_mean_motion_dot": -0.00233613,
        "meta_mean_motion_ddot": 0,
        "tle_line1": "1 66880U 25283C   25349.78462931 -.00233613  00000+0 -89101-3 0  9992",
        "tle_line2": "2 66880  53.1554  58.5171 0000456 234.7276 125.3707 15.87309644  2932"
      },
      "geometry": {
        "type": "Point",
        "coordinates": [
          133.52483656832257,
          52.701344944404084
        ]
      }
    },
    {
      "type": "Feature",
      "properties": {
        "norad_id": 66881,
        "name": "STARLINK-35860",
        "group": "last-30-days",
        "lat": 53.13311795541606,
        "lon": 144.26407133883134,
        "alt_km": 303.03456244939025,
        "timestamp": "2025-12-16T17:51:09.662540+00:00",
        "meta_object_name": "STARLINK-35860",
        "meta_object_id": "2025-283D",
        "meta_epoch": "2025-12-15T12:45:58.384800",
        "meta_mean_motion": 15.87947247,
        "meta_eccentricity": 0.00010399,
        "meta_inclination": 53.155,
        "meta_ra_of_asc_node": 59.7851,
        "meta_arg_of_pericenter": 15.295,
        "meta_mean_anomaly": 344.8107,
        "meta_ephemeris_type": 0,
        "meta_classification_type": "U",
        "meta_norad_cat_id": 66881,
        "meta_element_set_no": 999,
        "meta_rev_at_epoch": 289,
        "meta_bstar": -0.0013762426,
        "meta_mean_motion_dot": -0.00366575,
        "meta_mean_motion_ddot": 0,
        "tle_line1": "1 66881U 25283D   25349.53192575 -.00366575  00000+0 -13762-2 0  9993",
        "tle_line2": "2 66881  53.1550  59.7851 0001039  15.2950 344.8107 15.87947247  2890"
      },
      "geometry": {
        "type": "Point",
        "coordinates": [
          144.26407133883134,
          53.13311795541606
        ]
      }
    },
    {
      "type": "Feature",
      "properties": {
        "norad_id": 66882,
        "name": "STARLINK-35912",
        "group": "last-30-days",
        "lat": 53.100980946177025,
        "lon": 146.50044116409174,
        "alt_km": 303.37126636456924,
        "timestamp": "2025-12-16T17:51:09.662550+00:00",
        "meta_object_name": "STARLINK-35912",
        "meta_object_id": "2025-283E",
        "meta_epoch": "2025-12-15T14:16:01.920288",
        "meta_mean_motion": 15.87741947,
        "meta_eccentricity": 0.00017716,
        "meta_inclination": 53.1554,
        "meta_ra_of_asc_node": 59.464,
        "meta_arg_of_pericenter": 36.1132,
        "meta_mean_anomaly": 324.0013,
        "meta_ephemeris_type": 0,
        "meta_classification_type": "U",
        "meta_norad_cat_id": 66882,
        "meta_element_set_no": 999,
        "meta_rev_at_epoch": 290,
        "meta_bstar": -0.0016167234,
        "meta_mean_motion_dot": -0.0042353,
        "meta_mean_motion_ddot": 0,
        "tle_line1": "1 66882U 25283E   25349.59446667 -.00423530  00000+0 -16167-2 0  9991",
        "tle_line2": "2 66882  53.1554  59.4640 0001771  36.1132 324.0013 15.87741947  2902"
      },
      "geometry": {
        "type": "Point",
        "coordinates": [
          146.50044116409174,
          53.100980946177025
        ]
      }
    },
    {
      "type": "Feature",
      "properties": {
        "norad_id": 66883,
        "name": "STARLINK-35947",
        "group": "last-30-days",
        "lat": 52.44092502604407,
        "lon": 156.43285071908144,
        "alt_km": 298.2149003884333,
        "timestamp": "2025-12-16T17:51:09.662560+00:00",
        "meta_object_name": "STARLINK-35947",
        "meta_object_id": "2025-283F",
        "meta_epoch": "2025-12-15T21:48:37.692576",
        "meta_mean_motion": 15.87815943,
        "meta_eccentricity": 0.00020614,
        "meta_inclination": 53.1554,
        "meta_ra_of_asc_node": 57.868,
        "meta_arg_of_pericenter": 40.1328,
        "meta_mean_anomaly": 319.9849,
        "meta_ephemeris_type": 0,
        "meta_classification_type": "U",
        "meta_norad_cat_id": 66883,
        "meta_element_set_no": 999,
        "meta_rev_at_epoch": 297,
        "meta_bstar": 0.0018548924,
        "meta_mean_motion_dot": 0.00541804,
        "meta_mean_motion_ddot": 0,
        "tle_line1": "1 66883U 25283F   25349.90876959  .00541804  00000+0  18549-2 0  9997",
        "tle_line2": "2 66883  53.1554  57.8680 0002061  40.1328 319.9849 15.87815943  2979"
      },
      "geometry": {
        "type": "Point",
        "coordinates": [
          156.43285071908144,
          52.44092502604407
        ]
      }
    }
  ]
}